OBJECT_NAME,OBJECT_ID,EPOCH,MEAN_MOTION,ECCENTRICITY,INCLINATION,RA_OF_ASC_NODE,ARG_OF_PERICENTER,MEAN_ANOMALY,EPHEMERIS_TYPE,CLASSIFICATION_TYPE,NORAD_CAT_ID,ELEMENT_SET_NO,REV_AT_EPOCH,BSTAR,MEAN_MOTION_DOT,MEAN_MOTION_DDOT
KUZGTU 1 (RS47S),2023-091AV,2026-06-17T19:39:21.309696,15.29875057,.0012287,97.5061,233.3055,96.0254,264.2387,0,U,57217,999,16447,.34678E-3,.9979E-4,0
SONATE-2,2024-043Q,2026-06-17T09:28:57.147168,15.58731492,.00070546,97.5537,318.8032,194.9241,165.1808,0,U,59112,999,12792,.43430326E-3,.33446E-3,0
MESAT1,2024-125G,2026-06-17T13:18:16.626240,15.63233272,.0009608,97.2283,26.0449,202.4554,157.6286,0,U,60209,999,10962,.4931E-3,.45262E-3,0
OOV-CUBE (TUBSAT-30),2024-128F,2026-06-17T15:42:13.546944,15.02775098,.0044583,61.9933,223.9441,133.8615,226.6174,0,U,60240,999,10618,.12352E-3,.1478E-4,0
COLIBRI-S (RS67S),2024-199M,2026-06-17T20:06:13.447296,15.47747170,.0006259,97.2987,42.6975,275.7078,84.3458,0,U,61746,999,13751,.33781E-3,.17435E-3,0
HORS 3 (RS81S),2024-199U,2026-06-17T19:08:11.756256,15.55009394,.0003779,97.2970,44.6499,274.3771,85.7051,0,U,61753,999,13765,.46492E-3,.31161E-3,0
HORS 4 (RS82S),2024-199V,2026-06-17T19:41:10.898592,15.59728978,.0003128,97.2915,45.8791,254.1966,105.8946,0,U,61754,999,13774,.50556E-3,.4045E-3,0
SIT-2086,2024-199AF,2026-06-17T20:10:42.731904,15.53124997,.0004652,97.2926,45.1684,246.7687,113.3077,0,U,61764,999,13453,.49061E-3,.30716E-3,0
HYPERVIEW 1G (RS66S),2024-199AP,2026-06-17T16:44:33.173088,15.75954968,.0003879,97.2862,48.4424,216.3967,143.7035,0,U,61772,999,13475,.75647E-3,.118174E-2,0
ALTAIR (RS65S),2024-199AW,2026-06-17T19:52:30.782784,15.37030532,.0011074,97.3022,38.1747,308.6431,51.3821,0,U,61779,999,13721,.18146E-3,.6504E-4,0
ASRTU-1 (AO-123),2024-199AY,2026-06-17T19:35:54.007584,15.35683035,.0012254,97.2994,37.4816,311.6009,48.4184,0,U,61781,999,13402,.18047E-3,.6195E-4,0
SAMSAT-IONOSPHERE (RS75S),2024-199BB,2026-06-17T19:55:40.245024,15.57672475,.0005908,97.2939,44.7326,273.1185,86.9395,0,U,61784,999,13766,.52582E-3,.38956E-3,0
RTU MIREA 1 (RS51S),2024-199BC,2026-06-17T18:56:28.018752,15.61143035,.0005554,97.2926,45.5254,264.3723,95.6901,0,U,61785,999,13456,.55299E-3,.46765E-3,0
TEVEL2-4,2025-052D,2026-06-16T23:40:40.633824,15.34605865,.00048596,97.3904,64.3780,103.4475,256.7310,0,U,63213,999,7008,.48033828E-3,.16047E-3,0
TEVEL2-5,2025-052E,2026-06-17T15:49:13.563264,15.34451661,.000481,97.3899,64.9994,103.5179,256.6600,0,U,63214,999,7018,.45551E-3,.15137E-3,0
TEVEL2-6,2025-052F,2026-06-17T16:06:59.918112,15.34416475,.0004737,97.3904,64.9959,104.1466,256.0303,0,U,63215,999,7018,.45683E-3,.15165E-3,0
TEVEL2-1,2025-052H,2026-06-16T23:35:41.336448,15.33862790,.0004776,97.3878,63.9315,114.0246,246.1497,0,U,63217,999,7006,.46759393E-3,.15254E-3,0
TEVEL2-3,2025-052J,2026-06-17T15:07:21.614592,15.33936150,.0004756,97.3880,64.6004,112.8616,247.3129,0,U,63218,999,7016,.42884E-3,.14014E-3,0
TEVEL2-2,2025-052K,2026-06-16T15:46:26.181408,15.33861744,.00047153,97.3883,63.6082,115.1533,245.0199,0,U,63219,999,7001,.44263378E-3,.14434E-3,0
TEVEL2-9,2025-052AD,2026-06-17T16:17:55.622400,15.31910165,.0007848,97.3939,64.0040,129.4733,230.7203,0,U,63237,999,7010,.41401E-3,.12696E-3,0
TEVEL2-7,2025-052AE,2026-06-17T15:42:53.506080,15.31613826,.0007915,97.3940,63.8957,129.8998,230.2940,0,U,63238,999,7009,.43519E-3,.13228E-3,0
TEVEL2-8,2025-052AF,2026-06-17T15:54:46.878048,15.31597535,.0007934,97.3941,63.8807,130.2742,229.9195,0,U,63239,999,7009,.42222E-3,.12825E-3,0
INNOSAT 16 (RS92S7),2025-155C,2026-06-17T20:30:54.127296,15.25462874,.0010639,97.4566,135.9804,173.0102,187.1286,0,U,64878,999,8077,.19469E-3,.4859E-4,0
GEOSCAN 6 (RS92S6),2025-155D,2026-06-17T20:03:08.911584,15.30162707,.0008435,97.4560,137.3898,160.4294,199.7272,0,U,64879,999,8086,.2901E-3,.8399E-4,0
GEOSCAN 1 (RS92S1),2025-155E,2026-06-17T20:06:18.743616,15.30758373,.0008365,97.4556,137.5406,160.1215,200.0353,0,U,64880,999,8087,.30498E-3,.8999E-4,0
239ALFEROV (RS61S),2025-155F,2026-06-17T19:21:15.647040,15.32953978,.000813,97.4557,138.0727,157.1337,203.0268,0,U,64881,999,8090,.39005E-3,.12354E-3,0
GEOSCAN 2 (RS92S2),2025-155Q,2026-06-17T19:57:03.146688,15.31029518,.0008163,97.4555,137.6869,147.5523,212.6222,0,U,64890,999,8088,.29815E-3,.887E-4,0
GEOSCAN 5 (RS92S5),2025-155R,2026-06-17T19:05:16.309824,15.33270951,.0006847,97.4550,138.1992,160.7226,199.4276,0,U,64891,999,8091,.37659E-3,.12041E-3,0
GEOSCAN 4 (RS92S4),2025-155S,2026-06-17T20:16:23.325024,15.33428055,.0006918,97.4553,138.2977,160.0612,200.0902,0,U,64892,999,8092,.38167E-3,.12266E-3,0
GEOSCAN 3 (RS92S3),2025-155T,2026-06-17T20:16:15.184416,15.35415779,.000688,97.4541,138.7290,158.4517,201.7017,0,U,64893,999,8095,.44505E-3,.15254E-3,0
